CCSDS_OMM_VERS = 2.0
CREATION_DATE  = 
ORIGINATOR     = 

OBJECT_NAME    = STARLINK-37117
OBJECT_ID      = 2026-053F
CENTER_NAME    = EARTH
REF_FRAME      = TEME
TIME_SYSTEM    = UTC
MEAN_ELEMENT_THEORY = SGP/SGP4

EPOCH          = 2026-03-30T22:00:00.999936
MEAN_MOTION    = 15.80841812
ECCENTRICITY   = .00014092
INCLINATION    = 97.2844
RA_OF_ASC_NODE = 325.2295
ARG_OF_PERICENTER = 70.4078
MEAN_ANOMALY   = 181.5316

EPHEMERIS_TYPE = 0
CLASSIFICATION_TYPE = U
NORAD_CAT_ID   = 68212
ELEMENT_SET_NO = 999
REV_AT_EPOCH   = 342
BSTAR          = -.37592273E-3
MEAN_MOTION_DOT = -.71646E-3
MEAN_MOTION_DDOT = 0

CCSDS_OMM_VERS = 2.0
CREATION_DATE  = 
ORIGINATOR     = 

OBJECT_NAME    = STARLINK-37116
OBJECT_ID      = 2026-053G
CENTER_NAME    = EARTH
REF_FRAME      = TEME
TIME_SYSTEM    = UTC
MEAN_ELEMENT_THEORY = SGP/SGP4

EPOCH          = 2026-03-30T22:00:00.999936
MEAN_MOTION    = 15.80850815
ECCENTRICITY   = .00013206
INCLINATION    = 97.2844
RA_OF_ASC_NODE = 325.2303
ARG_OF_PERICENTER = 94.7176
MEAN_ANOMALY   = 161.5004

EPHEMERIS_TYPE = 0
CLASSIFICATION_TYPE = U
NORAD_CAT_ID   = 68213
ELEMENT_SET_NO = 999
REV_AT_EPOCH   = 342
BSTAR          = -.5322866E-3
MEAN_MOTION_DOT = -.10109E-2
MEAN_MOTION_DDOT = 0

CCSDS_OMM_VERS = 2.0
CREATION_DATE  = 
ORIGINATOR     = 

OBJECT_NAME    = STARLINK-35854
OBJECT_ID      = 2026-053H
CENTER_NAME    = EARTH
REF_FRAME      = TEME
TIME_SYSTEM    = UTC
MEAN_ELEMENT_THEORY = SGP/SGP4

EPOCH          = 2026-03-30T22:00:00.999936
MEAN_MOTION    = 15.80866452
ECCENTRICITY   = .00013009
INCLINATION    = 97.2842
RA_OF_ASC_NODE = 325.2321
ARG_OF_PERICENTER = 71.0300
MEAN_ANOMALY   = 189.4568

EPHEMERIS_TYPE = 0
CLASSIFICATION_TYPE = U
NORAD_CAT_ID   = 68214
ELEMENT_SET_NO = 999
REV_AT_EPOCH   = 318
BSTAR          = -.69224213E-3
MEAN_MOTION_DOT = -.131071E-2
MEAN_MOTION_DDOT = 0

CCSDS_OMM_VERS = 2.0
CREATION_DATE  = 
ORIGINATOR     = 

OBJECT_NAME    = STARLINK-36272
OBJECT_ID      = 2026-053J
CENTER_NAME    = EARTH
REF_FRAME      = TEME
TIME_SYSTEM    = UTC
MEAN_ELEMENT_THEORY = SGP/SGP4

EPOCH          = 2026-03-30T22:00:00.999936
MEAN_MOTION    = 15.80846257
ECCENTRICITY   = .00011455
INCLINATION    = 97.2844
RA_OF_ASC_NODE = 325.2334
ARG_OF_PERICENTER = 75.7925
MEAN_ANOMALY   = 188.9685

EPHEMERIS_TYPE = 0
CLASSIFICATION_TYPE = U
NORAD_CAT_ID   = 68215
ELEMENT_SET_NO = 999
REV_AT_EPOCH   = 331
BSTAR          = -.43075787E-3
MEAN_MOTION_DOT = -.81994E-3
MEAN_MOTION_DDOT = 0

CCSDS_OMM_VERS = 2.0
CREATION_DATE  = 
ORIGINATOR     = 

OBJECT_NAME    = STARLINK-37014
OBJECT_ID      = 2026-053K
CENTER_NAME    = EARTH
REF_FRAME      = TEME
TIME_SYSTEM    = UTC
MEAN_ELEMENT_THEORY = SGP/SGP4

EPOCH          = 2026-03-30T22:00:00.999936
MEAN_MOTION    = 15.80845391
ECCENTRICITY   = .0001331
INCLINATION    = 97.2845
RA_OF_ASC_NODE = 325.2352
ARG_OF_PERICENTER = 78.1993
MEAN_ANOMALY   = 190.8372

EPHEMERIS_TYPE = 0
CLASSIFICATION_TYPE = U
NORAD_CAT_ID   = 68216
ELEMENT_SET_NO = 999
REV_AT_EPOCH   = 342
BSTAR          = -.44996374E-3
MEAN_MOTION_DOT = -.85607E-3
MEAN_MOTION_DDOT = 0

CCSDS_OMM_VERS = 2.0
CREATION_DATE  = 
ORIGINATOR     = 

OBJECT_NAME    = STARLINK-37011
OBJECT_ID      = 2026-053L
CENTER_NAME    = EARTH
REF_FRAME      = TEME
TIME_SYSTEM    = UTC
MEAN_ELEMENT_THEORY = SGP/SGP4

EPOCH          = 2026-03-30T22:00:00.999936
MEAN_MOTION    = 15.80842074
ECCENTRICITY   = .0001421
INCLINATION    = 97.2843
RA_OF_ASC_NODE = 325.2377
ARG_OF_PERICENTER = 100.3669
MEAN_ANOMALY   = 172.9478

EPHEMERIS_TYPE = 0
CLASSIFICATION_TYPE = U
NORAD_CAT_ID   = 68217
ELEMENT_SET_NO = 999
REV_AT_EPOCH   = 342
BSTAR          = -.48295472E-3
MEAN_MOTION_DOT = -.91796E-3
MEAN_MOTION_DDOT = 0

CCSDS_OMM_VERS = 2.0
CREATION_DATE  = 
ORIGINATOR     = 

OBJECT_NAME    = STARLINK-37108
OBJECT_ID      = 2026-053M
CENTER_NAME    = EARTH
REF_FRAME      = TEME
TIME_SYSTEM    = UTC
MEAN_ELEMENT_THEORY = SGP/SGP4

EPOCH          = 2026-03-30T22:00:00.999936
MEAN_MOTION    = 15.80830917
ECCENTRICITY   = .00012734
INCLINATION    = 97.2845
RA_OF_ASC_NODE = 325.2407
ARG_OF_PERICENTER = 72.5067
MEAN_ANOMALY   = 205.0792

EPHEMERIS_TYPE = 0
CLASSIFICATION_TYPE = U
NORAD_CAT_ID   = 68218
ELEMENT_SET_NO = 999
REV_AT_EPOCH   = 342
BSTAR          = -.29103646E-3
MEAN_MOTION_DOT = -.55573E-3
MEAN_MOTION_DDOT = 0

CCSDS_OMM_VERS = 2.0
CREATION_DATE  = 
ORIGINATOR     = 

OBJECT_NAME    = STARLINK-37106
OBJECT_ID      = 2026-053N
CENTER_NAME    = EARTH
REF_FRAME      = TEME
TIME_SYSTEM    = UTC
MEAN_ELEMENT_THEORY = SGP/SGP4

EPOCH          = 2026-03-30T22:00:00.999936
MEAN_MOTION    = 15.80878806
ECCENTRICITY   = .00010524
INCLINATION    = 97.2843
RA_OF_ASC_NODE = 325.2414
ARG_OF_PERICENTER = 74.7311
MEAN_ANOMALY   = 207.1004

EPHEMERIS_TYPE = 0
CLASSIFICATION_TYPE = U
NORAD_CAT_ID   = 68219
ELEMENT_SET_NO = 999
REV_AT_EPOCH   = 342
BSTAR          = -.76751633E-3
MEAN_MOTION_DOT = -.145153E-2
MEAN_MOTION_DDOT = 0

CCSDS_OMM_VERS = 2.0
CREATION_DATE  = 
ORIGINATOR     = 

OBJECT_NAME    = STARLINK-37030
OBJECT_ID      = 2026-053P
CENTER_NAME    = EARTH
REF_FRAME      = TEME
TIME_SYSTEM    = UTC
MEAN_ELEMENT_THEORY = SGP/SGP4

EPOCH          = 2026-03-30T22:00:00.999936
MEAN_MOTION    = 15.80866599
ECCENTRICITY   = .00015502
INCLINATION    = 97.2846
RA_OF_ASC_NODE = 325.2445
ARG_OF_PERICENTER = 99.4791
MEAN_ANOMALY   = 190.9210

EPHEMERIS_TYPE = 0
CLASSIFICATION_TYPE = U
NORAD_CAT_ID   = 68220
ELEMENT_SET_NO = 999
REV_AT_EPOCH   = 342
BSTAR          = -.79168496E-3
MEAN_MOTION_DOT = -.149572E-2
MEAN_MOTION_DDOT = 0

CCSDS_OMM_VERS = 2.0
CREATION_DATE  = 
ORIGINATOR     = 

OBJECT_NAME    = STARLINK-37012
OBJECT_ID      = 2026-053Q
CENTER_NAME    = EARTH
REF_FRAME      = TEME
TIME_SYSTEM    = UTC
MEAN_ELEMENT_THEORY = SGP/SGP4

EPOCH          = 2026-03-30T22:00:00.999936
MEAN_MOTION    = 15.80851426
ECCENTRICITY   = .00013634
INCLINATION    = 97.2846
RA_OF_ASC_NODE = 325.2437
ARG_OF_PERICENTER = 91.1073
MEAN_ANOMALY   = 195.0082

EPHEMERIS_TYPE = 0
CLASSIFICATION_TYPE = U
NORAD_CAT_ID   = 68221
ELEMENT_SET_NO = 999
REV_AT_EPOCH   = 342
BSTAR          = -.51309584E-3
MEAN_MOTION_DOT = -.97493E-3
MEAN_MOTION_DDOT = 0

CCSDS_OMM_VERS = 2.0
CREATION_DATE  = 
ORIGINATOR     = 

OBJECT_NAME    = STARLINK-37110
OBJECT_ID      = 2026-053R
CENTER_NAME    = EARTH
REF_FRAME      = TEME
TIME_SYSTEM    = UTC
MEAN_ELEMENT_THEORY = SGP/SGP4

EPOCH          = 2026-03-30T22:00:00.999936
MEAN_MOTION    = 15.80850778
ECCENTRICITY   = .00014032
INCLINATION    = 97.2845
RA_OF_ASC_NODE = 325.2467
ARG_OF_PERICENTER = 108.4492
MEAN_ANOMALY   = 186.2238

EPHEMERIS_TYPE = 0
CLASSIFICATION_TYPE = U
NORAD_CAT_ID   = 68222
ELEMENT_SET_NO = 999
REV_AT_EPOCH   = 342
BSTAR          = -.6197399E-3
MEAN_MOTION_DOT = -.117457E-2
MEAN_MOTION_DDOT = 0

CCSDS_OMM_VERS = 2.0
CREATION_DATE  = 
ORIGINATOR     = 

OBJECT_NAME    = STARLINK-37025
OBJECT_ID      = 2026-053S
CENTER_NAME    = EARTH
REF_FRAME      = TEME
TIME_SYSTEM    = UTC
MEAN_ELEMENT_THEORY = SGP/SGP4

EPOCH          = 2026-03-30T22:00:00.999936
MEAN_MOTION    = 15.80890610
ECCENTRICITY   = .00014623
INCLINATION    = 97.2846
RA_OF_ASC_NODE = 325.2477
ARG_OF_PERICENTER = 66.7402
MEAN_ANOMALY   = 232.1977

EPHEMERIS_TYPE = 0
CLASSIFICATION_TYPE = U
NORAD_CAT_ID   = 68223
ELEMENT_SET_NO = 999
REV_AT_EPOCH   = 342
BSTAR          = -.92383096E-3
MEAN_MOTION_DOT = -.174216E-2
MEAN_MOTION_DDOT = 0

CCSDS_OMM_VERS = 2.0
CREATION_DATE  = 
ORIGINATOR     = 

OBJECT_NAME    = STARLINK-36977
OBJECT_ID      = 2026-053T
CENTER_NAME    = EARTH
REF_FRAME      = TEME
TIME_SYSTEM    = UTC
MEAN_ELEMENT_THEORY = SGP/SGP4

EPOCH          = 2026-03-30T22:00:00.999936
MEAN_MOTION    = 15.80889016
ECCENTRICITY   = .00015419
INCLINATION    = 97.2847
RA_OF_ASC_NODE = 325.2498
ARG_OF_PERICENTER = 65.6999
MEAN_ANOMALY   = 237.5097

EPHEMERIS_TYPE = 0
CLASSIFICATION_TYPE = U
NORAD_CAT_ID   = 68224
ELEMENT_SET_NO = 999
REV_AT_EPOCH   = 331
BSTAR          = -.94158618E-3
MEAN_MOTION_DOT = -.177485E-2
MEAN_MOTION_DDOT = 0

CCSDS_OMM_VERS = 2.0
CREATION_DATE  = 
ORIGINATOR     = 

OBJECT_NAME    = STARLINK-36960
OBJECT_ID      = 2026-053U
CENTER_NAME    = EARTH
REF_FRAME      = TEME
TIME_SYSTEM    = UTC
MEAN_ELEMENT_THEORY = SGP/SGP4

EPOCH          = 2026-03-30T22:00:00.999936
MEAN_MOTION    = 15.80845738
ECCENTRICITY   = .00018362
INCLINATION    = 97.2845
RA_OF_ASC_NODE = 325.2506
ARG_OF_PERICENTER = 103.3007
MEAN_ANOMALY   = 204.1967

EPHEMERIS_TYPE = 0
CLASSIFICATION_TYPE = U
NORAD_CAT_ID   = 68225
ELEMENT_SET_NO = 999
REV_AT_EPOCH   = 340
BSTAR          = -.5832742E-3
MEAN_MOTION_DOT = -.110623E-2
MEAN_MOTION_DDOT = 0

CCSDS_OMM_VERS = 2.0
CREATION_DATE  = 
ORIGINATOR     = 

OBJECT_NAME    = STARLINK-37038
OBJECT_ID      = 2026-053V
CENTER_NAME    = EARTH
REF_FRAME      = TEME
TIME_SYSTEM    = UTC
MEAN_ELEMENT_THEORY = SGP/SGP4

EPOCH          = 2026-03-30T22:00:00.999936
MEAN_MOTION    = 15.80889103
ECCENTRICITY   = .00014962
INCLINATION    = 97.2846
RA_OF_ASC_NODE = 325.2540
ARG_OF_PERICENTER = 74.5572
MEAN_ANOMALY   = 241.4740

EPHEMERIS_TYPE = 0
CLASSIFICATION_TYPE = U
NORAD_CAT_ID   = 68226
ELEMENT_SET_NO = 999
REV_AT_EPOCH   = 340
BSTAR          = -.9608966E-3
MEAN_MOTION_DOT = -.181048E-2
MEAN_MOTION_DDOT = 0

